ORBCOMM-X               
1 21576U 91050C   24187.80553586  .00000554  00000+0  17985-3 0  9994
2 21576  98.3890 254.7300 0004475 140.0236 220.1284 14.42577656732162
ORBCOMM FM01            
1 23545U 95017A   24187.78467076  .00005609  00000+0  73485-3 0  9997
2 23545  69.9650 212.2369 0003898 166.0538 194.0720 14.80862735561052
ORBCOMM FM02            
1 23546U 95017B   24188.23304707  .00006157  00000+0  81171-3 0  9990
2 23546  69.9671 230.6521 0005187 143.9392 216.2108 14.80544650561066
ORBCOMM FM08            
1 25112U 97084A   24187.90068693  .00001670  00000+0  53765-3 0  9994
2 25112  45.0138 226.7528 0009505 295.0175  64.9688 14.42877563391308
ORBCOMM FM10            
1 25113U 97084B   24188.18854198  .00001725  00000+0  55519-3 0  9999
2 25113  45.0139 227.2829 0007391 273.7486  86.2519 14.42780355391503
ORBCOMM FM11            
1 25114U 97084C   24187.58898239  .00001660  00000+0  53732-3 0  9990
2 25114  45.0135 230.2630 0008123 271.0732  88.9188 14.42643544391377
ORBCOMM FM12            
1 25115U 97084D   24188.17346318  .00001478  00000+0  48342-3 0  9991
2 25115  45.0143 227.1869 0007161 274.2293  85.7739 14.42607693391499
ORBCOMM FM09            
1 25116U 97084E   24187.90919851  .00001608  00000+0  52269-3 0  9998
2 25116  45.0147 229.1530 0008078 262.0056  97.9877 14.42572027391424
